{
  "type": "FeatureCollection",
  "features": [
    {
      "type": "Feature",
      "properties": {
        "norad_id": 34121,
        "name": "COSMOS 2251 DEB",
        "group": "cosmos-2251-debris",
        "lat": 1.1457631490249074,
        "lon": 98.49264707481375,
        "alt_km": 827.3128720920804,
        "timestamp": "2025-12-12T03:50:52.812131+00:00",
        "meta_object_name": "COSMOS 2251 DEB",
        "meta_object_id": "1993-036KS",
        "meta_epoch": "2025-12-11T10:55:14.454624",
        "meta_mean_motion": 13.91923056,
        "meta_eccentricity": 0.02401641,
        "meta_inclination": 73.9926,
        "meta_ra_of_asc_node": 99.3718,
        "meta_arg_of_pericenter": 305.0899,
        "meta_mean_anomaly": 121.0406,
        "meta_ephemeris_type": 0,
        "meta_classification_type": "U",
        "meta_norad_cat_id": 34121,
        "meta_element_set_no": 999,
        "meta_rev_at_epoch": 85107,
        "meta_bstar": 0.0019023615,
        "meta_mean_motion_dot": 3.045e-05,
        "meta_mean_motion_ddot": 0,
        "tle_line1": "1 34121U 93036KS  25345.45502841  .00003045  00000+0  19024-2 0  9999",
        "tle_line2": "2 34121  73.9926  99.3718 0240164 305.0899 121.0406 13.91923056851071"
      },
      "geometry": {
        "type": "Point",
        "coordinates": [
          98.49264707481375,
          1.1457631490249074
        ]
      }
    },
    {
      "type": "Feature",
      "properties": {
        "norad_id": 34122,
        "name": "COSMOS 2251 DEB",
        "group": "cosmos-2251-debris",
        "lat": 72.26388452739313,
        "lon": -123.76199686690524,
        "alt_km": 659.8540949566459,
        "timestamp": "2025-12-12T03:50:52.812141+00:00",
        "meta_object_name": "COSMOS 2251 DEB",
        "meta_object_id": "1993-036KT",
        "meta_epoch": "2025-12-11T16:00:10.116864",
        "meta_mean_motion": 14.65026935,
        "meta_eccentricity": 0.00842746,
        "meta_inclination": 74.0358,
        "meta_ra_of_asc_node": 120.6982,
        "meta_arg_of_pericenter": 17.8752,
        "meta_mean_anomaly": 357.0036,
        "meta_ephemeris_type": 0,
        "meta_classification_type": "U",
        "meta_norad_cat_id": 34122,
        "meta_element_set_no": 999,
        "meta_rev_at_epoch": 88669,
        "meta_bstar": 0.0019073278,
        "meta_mean_motion_dot": 0.0001076,
        "meta_mean_motion_ddot": 0,
        "tle_line1": "1 34122U 93036KT  25345.66678376  .00010760  00000+0  19073-2 0  9996",
        "tle_line2": "2 34122  74.0358 120.6982 0084274  17.8752 357.0036 14.65026935886696"
      },
      "geometry": {
        "type": "Point",
        "coordinates": [
          -123.76199686690524,
          72.26388452739313
        ]
      }
    },
    {
      "type": "Feature",
      "properties": {
        "norad_id": 34127,
        "name": "COSMOS 2251 DEB",
        "group": "cosmos-2251-debris",
        "lat": 69.77752470378587,
        "lon": 95.24139810365881,
        "alt_km": 859.9256046770024,
        "timestamp": "2025-12-12T03:50:52.812151+00:00",
        "meta_object_name": "COSMOS 2251 DEB",
        "meta_object_id": "1993-036KY",
        "meta_epoch": "2025-12-11T05:56:59.724672",
        "meta_mean_motion": 14.31523524,
        "meta_eccentricity": 0.01149236,
        "meta_inclination": 74.179,
        "meta_ra_of_asc_node": 46.5595,
        "meta_arg_of_pericenter": 247.0228,
        "meta_mean_anomaly": 170.2631,
        "meta_ephemeris_type": 0,
        "meta_classification_type": "U",
        "meta_norad_cat_id": 34127,
        "meta_element_set_no": 999,
        "meta_rev_at_epoch": 86750,
        "meta_bstar": 0.0034590442,
        "meta_mean_motion_dot": 9.875e-05,
        "meta_mean_motion_ddot": 0,
        "tle_line1": "1 34127U 93036KY  25345.24791348  .00009875  00000+0  34590-2 0  9996",
        "tle_line2": "2 34127  74.1790  46.5595 0114923 247.0228 170.2631 14.31523524867502"
      },
      "geometry": {
        "type": "Point",
        "coordinates": [
          95.24139810365881,
          69.77752470378587
        ]
      }
    },
    {
      "type": "Feature",
      "properties": {
        "norad_id": 34128,
        "name": "COSMOS 2251 DEB",
        "group": "cosmos-2251-debris",
        "lat": 39.2065942111723,
        "lon": 104.36887035418367,
        "alt_km": 559.5728601371111,
        "timestamp": "2025-12-12T03:50:52.812161+00:00",
        "meta_object_name": "COSMOS 2251 DEB",
        "meta_object_id": "1993-036KZ",
        "meta_epoch": "2025-12-11T06:58:58.887840",
        "meta_mean_motion": 15.01048917,
        "meta_eccentricity": 0.00262244,
        "meta_inclination": 73.9994,
        "meta_ra_of_asc_node": 299.6798,
        "meta_arg_of_pericenter": 52.31,
        "meta_mean_anomaly": 70.1521,
        "meta_ephemeris_type": 0,
        "meta_classification_type": "U",
        "meta_norad_cat_id": 34128,
        "meta_element_set_no": 999,
        "meta_rev_at_epoch": 89145,
        "meta_bstar": 0.0037273717,
        "meta_mean_motion_dot": 0.00048291,
        "meta_mean_motion_ddot": 0,
        "tle_line1": "1 34128U 93036KZ  25345.29095935  .00048291  00000+0  37274-2 0  9998",
        "tle_line2": "2 34128  73.9994 299.6798 0026224  52.3100  70.1521 15.01048917891457"
      },
      "geometry": {
        "type": "Point",
        "coordinates": [
          104.36887035418367,
          39.2065942111723
        ]
      }
    },
    {
      "type": "Feature",
      "properties": {
        "norad_id": 34129,
        "name": "COSMOS 2251 DEB",
        "group": "cosmos-2251-debris",
        "lat": 65.39560856552802,
        "lon": 121.96947320041319,
        "alt_km": 620.1984156090866,
        "timestamp": "2025-12-12T03:50:52.812171+00:00",
        "meta_object_name": "COSMOS 2251 DEB",
        "meta_object_id": "1993-036LA",
        "meta_epoch": "2025-12-11T09:27:42.715296",
        "meta_mean_motion": 14.75699111,
        "meta_eccentricity": 0.00328839,
        "meta_inclination": 74.0357,
        "meta_ra_of_asc_node": 342.1591,
        "meta_arg_of_pericenter": 64.0874,
        "meta_mean_anomaly": 296.3683,
        "meta_ephemeris_type": 0,
        "meta_classification_type": "U",
        "meta_norad_cat_id": 34129,
        "meta_element_set_no": 999,
        "meta_rev_at_epoch": 61278,
        "meta_bstar": 0.002527001,
        "meta_mean_motion_dot": 0.00017444,
        "meta_mean_motion_ddot": 0,
        "tle_line1": "1 34129U 93036LA  25345.39424439  .00017444  00000+0  25270-2 0  9994",
        "tle_line2": "2 34129  74.0357 342.1591 0032883  64.0874 296.3683 14.75699111612780"
      },
      "geometry": {
        "type": "Point",
        "coordinates": [
          121.96947320041319,
          65.39560856552802
        ]
      }
    },
    {
      "type": "Feature",
      "properties": {
        "norad_id": 34136,
        "name": "COSMOS 2251 DEB",
        "group": "cosmos-2251-debris",
        "lat": -68.27163925172124,
        "lon": -90.25112481602432,
        "alt_km": 633.5370286072057,
        "timestamp": "2025-12-12T03:50:52.812181+00:00",
        "meta_object_name": "COSMOS 2251 DEB",
        "meta_object_id": "1993-036LH",
        "meta_epoch": "2025-12-11T14:24:13.151808",
        "meta_mean_motion": 14.80068991,
        "meta_eccentricity": 0.00858782,
        "meta_inclination": 74.0209,
        "meta_ra_of_asc_node": 44.8798,
        "meta_arg_of_pericenter": 168.1528,
        "meta_mean_anomaly": 342.3783,
        "meta_ephemeris_type": 0,
        "meta_classification_type": "U",
        "meta_norad_cat_id": 34136,
        "meta_element_set_no": 999,
        "meta_rev_at_epoch": 89993,
        "meta_bstar": 0.00074072616,
        "meta_mean_motion_dot": 5.946e-05,
        "meta_mean_motion_ddot": 0,
        "tle_line1": "1 34136U 93036LH  25345.60015222  .00005946  00000+0  74073-3 0  9992",
        "tle_line2": "2 34136  74.0209  44.8798 0085878 168.1528 342.3783 14.80068991899932"
      },
      "geometry": {
        "type": "Point",
        "coordinates": [
          -90.25112481602432,
          -68.27163925172124
        ]
      }
    },
    {
      "type": "Feature",
      "properties": {
        "norad_id": 34139,
        "name": "COSMOS 2251 DEB",
        "group": "cosmos-2251-debris",
        "lat": 18.572886958601124,
        "lon": -99.31041977229714,
        "alt_km": 678.1006044668366,
        "timestamp": "2025-12-12T03:50:52.812192+00:00",
        "meta_object_name": "COSMOS 2251 DEB",
        "meta_object_id": "1993-036LL",
        "meta_epoch": "2025-12-11T12:06:41.122368",
        "meta_mean_motion": 14.59041428,
        "meta_eccentricity": 0.00425611,
        "meta_inclination": 74.0306,
        "meta_ra_of_asc_node": 256.4173,
        "meta_arg_of_pericenter": 327.5104,
        "meta_mean_anomaly": 208.898,
        "meta_ephemeris_type": 0,
        "meta_classification_type": "U",
        "meta_norad_cat_id": 34139,
        "meta_element_set_no": 999,
        "meta_rev_at_epoch": 88131,
        "meta_bstar": 0.0029471329,
        "meta_mean_motion_dot": 0.00014025,
        "meta_mean_motion_ddot": 0,
        "tle_line1": "1 34139U 93036LL  25345.50464262  .00014025  00000+0  29471-2 0  9995",
        "tle_line2": "2 34139  74.0306 256.4173 0042561 327.5104 208.8980 14.59041428881314"
      },
      "geometry": {
        "type": "Point",
        "coordinates": [
          -99.31041977229714,
          18.572886958601124
        ]
      }
    }
  ]
}